{
  "type": "FeatureCollection",
  "features": [
    {
      "type": "Feature",
      "properties": {
        "norad_id": 36744,
        "name": "COMS 1",
        "group": "weather",
        "lat": -3.743919896489062,
        "lon": 18.413577316149112,
        "alt_km": 35787.0121722422,
        "timestamp": "2025-12-18T10:51:25.430648+00:00",
        "meta_object_name": "COMS 1",
        "meta_object_id": "2010-032A",
        "meta_epoch": "2025-12-17T15:38:54.201408",
        "meta_mean_motion": 1.00271201,
        "meta_eccentricity": 7.666e-05,
        "meta_inclination": 4.3522,
        "meta_ra_of_asc_node": 77.943,
        "meta_arg_of_pericenter": 207.8131,
        "meta_mean_anomaly": 163.6647,
        "meta_ephemeris_type": 0,
        "meta_classification_type": "U",
        "meta_norad_cat_id": 36744,
        "meta_element_set_no": 999,
        "meta_rev_at_epoch": 4927,
        "meta_bstar": 0,
        "meta_mean_motion_dot": -3.23e-06,
        "meta_mean_motion_ddot": 0,
        "tle_line1": "1 36744U 10032A   25351.65201622 -.00000323  00000+0  00000+0 0  9997",
        "tle_line2": "2 36744   4.3522  77.9430 0000766 207.8131 163.6647  1.00271201 49272"
      },
      "geometry": {
        "type": "Point",
        "coordinates": [
          18.413577316149112,
          -3.743919896489062
        ]
      }
    },
    {
      "type": "Feature",
      "properties": {
        "norad_id": 37214,
        "name": "FENGYUN 3B",
        "group": "weather",
        "lat": -45.01628257839909,
        "lon": 41.5842853524268,
        "alt_km": 835.6629721802638,
        "timestamp": "2025-12-18T10:51:25.430661+00:00",
        "meta_object_name": "FENGYUN 3B",
        "meta_object_id": "2010-059A",
        "meta_epoch": "2025-12-17T23:44:18.374784",
        "meta_mean_motion": 14.1479099,
        "meta_eccentricity": 0.00218103,
        "meta_inclination": 98.9907,
        "meta_ra_of_asc_node": 32.0033,
        "meta_arg_of_pericenter": 342.781,
        "meta_mean_anomaly": 133.4177,
        "meta_ephemeris_type": 0,
        "meta_classification_type": "U",
        "meta_norad_cat_id": 37214,
        "meta_element_set_no": 999,
        "meta_rev_at_epoch": 78180,
        "meta_bstar": 0.0001164484,
        "meta_mean_motion_dot": 1.79e-06,
        "meta_mean_motion_ddot": 0,
        "tle_line1": "1 37214U 10059A   25351.98910156  .00000179  00000+0  11645-3 0  9993",
        "tle_line2": "2 37214  98.9907  32.0033 0021810 342.7810 133.4177 14.14790990781803"
      },
      "geometry": {
        "type": "Point",
        "coordinates": [
          41.5842853524268,
          -45.01628257839909
        ]
      }
    },
    {
      "type": "Feature",
      "properties": {
        "norad_id": 37849,
        "name": "SUOMI NPP",
        "group": "weather",
        "lat": -70.26147999687898,
        "lon": 84.23548254177749,
        "alt_km": 835.6092787201824,
        "timestamp": "2025-12-18T10:51:25.430672+00:00",
        "meta_object_name": "SUOMI NPP",
        "meta_object_id": "2011-061A",
        "meta_epoch": "2025-12-17T18:26:51.454176",
        "meta_mean_motion": 14.19515647,
        "meta_eccentricity": 0.00023828,
        "meta_inclination": 98.7779,
        "meta_ra_of_asc_node": 289.065,
        "meta_arg_of_pericenter": 111.4739,
        "meta_mean_anomaly": 248.6691,
        "meta_ephemeris_type": 0,
        "meta_classification_type": "U",
        "meta_norad_cat_id": 37849,
        "meta_element_set_no": 999,
        "meta_rev_at_epoch": 73270,
        "meta_bstar": 5.2887893e-05,
        "meta_mean_motion_dot": 6.7e-07,
        "meta_mean_motion_ddot": 0,
        "tle_line1": "1 37849U 11061A   25351.76865109  .00000067  00000+0  52888-4 0  9995",
        "tle_line2": "2 37849  98.7779 289.0650 0002382 111.4739 248.6691 14.19515647732709"
      },
      "geometry": {
        "type": "Point",
        "coordinates": [
          84.23548254177749,
          -70.26147999687898
        ]
      }
    },
    {
      "type": "Feature",
      "properties": {
        "norad_id": 38552,
        "name": "METEOSAT-10 (MSG-3)",
        "group": "weather",
        "lat": -0.6660897716487463,
        "lon": -109.60891453544693,
        "alt_km": 35784.36168801052,
        "timestamp": "2025-12-18T10:51:25.430685+00:00",
        "meta_object_name": "METEOSAT-10 (MSG-3)",
        "meta_object_id": "2012-035B",
        "meta_epoch": "2025-12-17T08:11:30.501600",
        "meta_mean_motion": 1.00276196,
        "meta_eccentricity": 7e-05,
        "meta_inclination": 4.2391,
        "meta_ra_of_asc_node": 61.7122,
        "meta_arg_of_pericenter": 268.6203,
        "meta_mean_anomaly": 239.0035,
        "meta_ephemeris_type": 0,
        "meta_classification_type": "U",
        "meta_norad_cat_id": 38552,
        "meta_element_set_no": 999,
        "meta_rev_at_epoch": 4903,
        "meta_bstar": 0,
        "meta_mean_motion_dot": 1.7e-07,
        "meta_mean_motion_ddot": 0,
        "tle_line1": "1 38552U 12035B   25351.34132525  .00000017  00000+0  00000+0 0  9991",
        "tle_line2": "2 38552   4.2391  61.7122 0000700 268.6203 239.0035  1.00276196 49037"
      },
      "geometry": {
        "type": "Point",
        "coordinates": [
          -109.60891453544693,
          -0.6660897716487463
        ]
      }
    },
    {
      "type": "Feature",
      "properties": {
        "norad_id": 38771,
        "name": "METOP-B",
        "group": "weather",
        "lat": 36.12813735369036,
        "lon": -131.28400204468645,
        "alt_km": 815.8530120809783,
        "timestamp": "2025-12-18T10:51:25.430696+00:00",
        "meta_object_name": "METOP-B",
        "meta_object_id": "2012-049A",
        "meta_epoch": "2025-12-17T20:40:11.867808",
        "meta_mean_motion": 14.21410289,
        "meta_eccentricity": 0.000309,
        "meta_inclination": 98.6793,
        "meta_ra_of_asc_node": 41.7331,
        "meta_arg_of_pericenter": 133.3069,
        "meta_mean_anomaly": 226.8367,
        "meta_ephemeris_type": 0,
        "meta_classification_type": "U",
        "meta_norad_cat_id": 38771,
        "meta_element_set_no": 999,
        "meta_rev_at_epoch": 68750,
        "meta_bstar": 7.7320839e-05,
        "meta_mean_motion_dot": 1.25e-06,
        "meta_mean_motion_ddot": 0,
        "tle_line1": "1 38771U 12049A   25351.86124847  .00000125  00000+0  77321-4 0  9999",
        "tle_line2": "2 38771  98.6793  41.7331 0003090 133.3069 226.8367 14.21410289687508"
      },
      "geometry": {
        "type": "Point",
        "coordinates": [
          -131.28400204468645,
          36.12813735369036
        ]
      }
    },
    {
      "type": "Feature",
      "properties": {
        "norad_id": 39216,
        "name": "INSAT-3D",
        "group": "weather",
        "lat": -1.311403310066628,
        "lon": 19.6490658157452,
        "alt_km": 35790.648718573066,
        "timestamp": "2025-12-18T10:51:25.430708+00:00",
        "meta_object_name": "INSAT-3D",
        "meta_object_id": "2013-038B",
        "meta_epoch": "2025-12-17T17:21:59.330304",
        "meta_mean_motion": 1.00267779,
        "meta_eccentricity": 0.00012009,
        "meta_inclination": 1.4572,
        "meta_ra_of_asc_node": 84.9421,
        "meta_arg_of_pericenter": 166.0293,
        "meta_mean_anomaly": 225.6028,
        "meta_ephemeris_type": 0,
        "meta_classification_type": "U",
        "meta_norad_cat_id": 39216,
        "meta_element_set_no": 999,
        "meta_rev_at_epoch": 4526,
        "meta_bstar": 0,
        "meta_mean_motion_dot": -3.16e-06,
        "meta_mean_motion_ddot": 0,
        "tle_line1": "1 39216U 13038B   25351.72360336 -.00000316  00000+0  00000+0 0  9991",
        "tle_line2": "2 39216   1.4572  84.9421 0001200 166.0293 225.6028  1.00267779 45261"
      },
      "geometry": {
        "type": "Point",
        "coordinates": [
          19.6490658157452,
          -1.311403310066628
        ]
      }
    },
    {
      "type": "Feature",
      "properties": {
        "norad_id": 39260,
        "name": "FENGYUN 3C",
        "group": "weather",
        "lat": -80.99379152525329,
        "lon": 40.05766071006964,
        "alt_km": 847.9366705816074,
        "timestamp": "2025-12-18T10:51:25.430719+00:00",
        "meta_object_name": "FENGYUN 3C",
        "meta_object_id": "2013-052A",
        "meta_epoch": "2025-12-17T21:41:53.583360",
        "meta_mean_motion": 14.15697964,
        "meta_eccentricity": 0.00145653,
        "meta_inclination": 98.4767,
        "meta_ra_of_asc_node": 329.3314,
        "meta_arg_of_pericenter": 180.9342,
        "meta_mean_anomaly": 179.1808,
        "meta_ephemeris_type": 0,
        "meta_classification_type": "U",
        "meta_norad_cat_id": 39260,
        "meta_element_set_no": 999,
        "meta_rev_at_epoch": 63291,
        "meta_bstar": 7.1672092e-05,
        "meta_mean_motion_dot": 1e-06,
        "meta_mean_motion_ddot": 0,
        "tle_line1": "1 39260U 13052A   25351.90409240  .00000100  00000+0  71672-4 0  9992",
        "tle_line2": "2 39260  98.4767 329.3314 0014565 180.9342 179.1808 14.15697964632913"
      },
      "geometry": {
        "type": "Point",
        "coordinates": [
          40.05766071006964,
          -80.99379152525329
        ]
      }
    }
  ]
}